      2.10          N: GNSS NAV DATA                        RINEX VERSION / TYPE
fic2rin                                 06/11/2020 00:17:34 PGM / RUN BY / DATE
                                                            END OF HEADER
 5 20  6 10 12  0  0.0-1.436984166503e-05-7.958078640513e-13 0.000000000000e+00
    8.200000000000e+01-8.184375000000e+01 4.459828626906e-09 9.526018191180e-01
   -4.148110747337e-06 5.910363863222e-03 8.428469300270e-06 5.153679012299e+03
    3.024000000000e+05-1.192092895508e-07-2.451646717406e+00-2.235174179077e-08
    9.528498949142e-01 2.156875000000e+02 8.013723671643e-01-8.016048186297e-09
    6.071681481333e-11 1.000000000000e+00 2.109000000000e+03 0.000000000000e+00
    2.400000000000e+00 0.000000000000e+00-1.117587089539e-08 8.200000000000e+01
    2.952000000000e+05 4.000000000000e+00
 7 20  6 10 12  0  0.0-3.012148663402e-04-8.753886504564e-12 0.000000000000e+00
    1.020000000000e+02 2.968750000000e+00 5.005922802492e-09-2.729580185925e+00
   -9.126961231232e-08 1.394432422239e-02 6.929039955139e-06 5.153656038284e+03
    3.024000000000e+05 1.024454832077e-07-3.143277674818e-01-2.719461917877e-07
    9.532866900685e-01 2.434375000000e+02-2.391467730162e+00-7.981761043814e-09
   -1.142904749427e-10 1.000000000000e+00 2.109000000000e+03 0.000000000000e+00
    3.400000000000e+00 0.000000000000e+00-1.117587089539e-08 1.020000000000e+02
    2.952000000000e+05 4.000000000000e+00
16 20  6 10 12  0  0.0-1.687379553914e-04-4.661160346586e-12 0.000000000000e+00
    5.900000000000e+01 6.109375000000e+01 4.148744240422e-09 1.009510754358e+00
    3.481283783913e-06 1.147011446301e-02 9.344890713692e-06 5.153775806427e+03
    3.024000000000e+05 7.450580596924e-09 8.104554733750e-01 1.285225152969e-07
    9.784915631297e-01 2.095000000000e+02 6.335585327016e-01-7.874613723555e-09
   -4.193031799462e-10 1.000000000000e+00 2.109000000000e+03 0.000000000000e+00
    2.400000000000e+00 0.000000000000e+00-1.071020960808e-08 5.900000000000e+01
    2.952000000000e+05 4.000000000000e+00
 9 20  6 10 12  0  0.0-2.337149344385e-04-6.934897101019e-12 0.000000000000e+00
    8.500000000000e+01-1.437500000000e+00 4.761269754568e-09 5.052345055251e-01
   -1.452863216400e-07 1.510815345682e-03 8.197501301765e-06 5.153714502335e+03
    3.024000000000e+05 5.587935447693e-09-1.388439439379e+00 3.911554813385e-08
    9.522999635274e-01 2.127187500000e+02 1.808301619707e+00-8.079979420718e-09
    5.071639825584e-10 1.000000000000e+00 2.109000000000e+03 0.000000000000e+00
    2.400000000000e+00 0.000000000000e+00 1.396983861923e-09 8.500000000000e+01
    2.952000000000e+05 4.000000000000e+00
 8 20  6 10 12  0  0.0-3.704708069563e-05-1.364242052659e-12 0.000000000000e+00
    5.100000000000e+01 8.734375000000e+01 4.339466470482e-09 2.919926115786e-01
    4.375353455544e-06 5.347364814952e-03 4.738569259644e-06 5.153681070328e+03
    3.024000000000e+05 1.005828380585e-07 1.753389968484e+00-3.725290298462e-09
    9.693992463868e-01 2.899062500000e+02-6.538426043118e-02-8.192841264724e-09
   -4.285892810353e-12 1.000000000000e+00 2.109000000000e+03 0.000000000000e+00
    2.400000000000e+00 0.000000000000e+00 5.122274160385e-09 5.100000000000e+01
    2.952000000000e+05 4.000000000000e+00
24 20  6 10 12  0  0.0-1.415470615029e-05-5.684341886081e-13 0.000000000000e+00
    3.000000000000e+01 6.406250000000e+00 5.432011979388e-09-1.751486634529e+00
    1.955777406693e-07 9.696538327262e-03 6.029382348061e-06 5.153644538879e+03
    3.024000000000e+05 1.415610313416e-07-3.866757242417e-01-6.332993507385e-08
    9.365134901859e-01 2.477187500000e+02 6.676140352729e-01-8.322132364503e-09
    7.857470152314e-12 1.000000000000e+00 2.109000000000e+03 0.000000000000e+00
    2.400000000000e+00 0.000000000000e+00 2.793967723846e-09 3.000000000000e+01
    2.952000000000e+05 4.000000000000e+00
30 20  6 10 12  0  0.0-2.387003041804e-04-7.958078640513e-12 0.000000000000e+00
    8.500000000000e+01 5.750000000000e+00 5.380581265664e-09-2.771122901763e+00
    2.831220626831e-07 4.674396128394e-03 6.971880793571e-06 5.153630514145e+03
    3.024000000000e+05-6.705522537231e-08-2.918648666461e-01-6.519258022308e-08
    9.386089096743e-01 2.384375000000e+02-2.855409847076e+00-8.264987127032e-09
   -1.657211886670e-10 1.000000000000e+00 2.109000000000e+03 0.000000000000e+00
    2.400000000000e+00 0.000000000000e+00 3.725290298462e-09 8.500000000000e+01
    2.952000000000e+05 4.000000000000e+00
27 20  6 10 12  0  0.0-3.168606199324e-04-9.890754881781e-12 0.000000000000e+00
    7.700000000000e+01 8.131250000000e+01 4.226961784211e-09 1.360269213816e-01
    4.297122359276e-06 8.306109695695e-03 4.773959517479e-06 5.153667343140e+03
    3.024000000000e+05 8.381903171539e-08 1.767798035061e+00 1.229345798492e-07
    9.778281107629e-01 2.925625000000e+02 5.710351124417e-01-8.166054434659e-09
   -5.000208278745e-12 1.000000000000e+00 2.109000000000e+03 0.000000000000e+00
    2.400000000000e+00 0.000000000000e+00 1.862645149231e-09 7.700000000000e+01
    2.952000000000e+05 4.000000000000e+00
22 20  6 10 12  0  0.0-7.786680944264e-04 1.818989403546e-12 0.000000000000e+00
    7.400000000000e+01-9.481250000000e+01 4.863774024282e-09-7.343574182827e-01
   -4.891306161880e-06 7.047506165691e-03 9.099021553993e-06 5.153819904327e+03
    3.024000000000e+05-1.583248376846e-07-2.506497392740e+00 7.450580596924e-08
    9.310056943184e-01 1.892187500000e+02-1.139485353967e+00-8.281416382805e-09
    1.664355041354e-10 1.000000000000e+00 2.109000000000e+03 0.000000000000e+00
    2.400000000000e+00 0.000000000000e+00-1.816079020500e-08 7.400000000000e+01
    2.952000000000e+05 4.000000000000e+00
19 20  6 10 12  0  0.0-1.470879651606e-04 5.115907697473e-12 0.000000000000e+00
    4.000000000000e+01 7.812500000000e+01 4.060169122341e-09 2.722090371590e+00
    4.081055521965e-06 9.470223332755e-03 4.522502422333e-06 5.153693805695e+03
    3.024000000000e+05 1.732259988785e-07 1.871946798235e+00-1.043081283569e-07
    9.819229896282e-01 2.993750000000e+02 1.635459484184e+00-7.904257815494e-09
   -1.678641350722e-11 1.000000000000e+00 2.109000000000e+03 0.000000000000e+00
    2.400000000000e+00 0.000000000000e+00-1.536682248116e-08 4.000000000000e+01
    2.952000000000e+05 4.000000000000e+00
14 20  6 10 12  0  0.0-6.887130439281e-06 2.728484105319e-12 0.000000000000e+00
    8.200000000000e+01 1.340625000000e+01 4.745554814263e-09-6.124065469051e-02
    6.072223186493e-07 1.150081399828e-02 8.076429367065e-06 5.153649412155e+03
    3.024000000000e+05-1.676380634308e-07-1.292385066306e+00 1.844018697739e-07
    9.600399705011e-01 2.280312500000e+02-1.913885833210e+00-8.178197797622e-09
    4.568047420368e-10 1.000000000000e+00 2.109000000000e+03 0.000000000000e+00
    2.400000000000e+00 0.000000000000e+00-9.778887033463e-09 8.200000000000e+01
    2.952000000000e+05 4.000000000000e+00
11 20  6 10 12  0  0.0-2.527264878154e-04 1.068656274583e-11 0.000000000000e+00
    6.600000000000e+01 1.700000000000e+01 5.515586889190e-09-2.494290729678e+00
    1.072883605957e-06 1.601410447620e-02 1.136213541031e-06 5.153720258713e+03
    3.024000000000e+05 1.303851604462e-07 2.348227480757e+00 1.769512891769e-07
    9.128630655994e-01 3.326562500000e+02 1.990509895127e+00-8.597143819834e-09
   -4.250177036933e-11 1.000000000000e+00 2.109000000000e+03 0.000000000000e+00
    2.400000000000e+00 0.000000000000e+00-1.257285475731e-08 6.600000000000e+01
    2.952000000000e+05 4.000000000000e+00
21 20  6 10 12  0  0.0 9.810086339712e-06 4.774847184308e-12 0.000000000000e+00
    1.040000000000e+02-4.828125000000e+01 4.544117852177e-09 2.138631717018e+00
   -2.643093466759e-06 2.386731386650e-02 1.847743988037e-06 5.155136505127e+03
    3.024000000000e+05 3.613531589508e-07 2.749216521297e+00 0.000000000000e+00
    9.535188624822e-01 3.329062500000e+02-1.322946669925e+00-7.935687696103e-09
   -2.610823036973e-10 1.000000000000e+00 2.109000000000e+03 0.000000000000e+00
    2.400000000000e+00 0.000000000000e+00-1.024454832077e-08 1.040000000000e+02
    2.952000000000e+05 4.000000000000e+00
13 20  6 10 12  0  0.0 1.715263351798e-05 3.183231456205e-12 0.000000000000e+00
    9.700000000000e+01 3.156250000000e+00 4.535546066556e-09-5.552320203509e-01
    2.607703208923e-07 4.135303664953e-03 7.912516593933e-06 5.153657094955e+03
    3.024000000000e+05 3.725290298462e-09-1.245291416072e+00 2.607703208923e-08
    9.674515962537e-01 2.334375000000e+02 1.072647156311e+00-7.956402844686e-09
    3.835874065266e-10 1.000000000000e+00 2.109000000000e+03 0.000000000000e+00
    2.400000000000e+00 0.000000000000e+00-1.117587089539e-08 9.700000000000e+01
    2.952000000000e+05 4.000000000000e+00
12 20  6 10 12  0  0.0 1.077381893992e-04-4.433786671143e-12 0.000000000000e+00
    9.300000000000e+01 5.209375000000e+01 4.031953661340e-09 2.854431873174e+00
    2.626329660416e-06 8.041629916988e-03 9.108334779739e-06 5.153682903290e+03
    3.024000000000e+05 1.862645149231e-09 7.915988206740e-01-1.471489667892e-07
    9.782793449186e-01 2.076562500000e+02 1.158687912185e+00-7.603531003300e-09
   -3.157274370293e-10 1.000000000000e+00 2.109000000000e+03 0.000000000000e+00
    2.400000000000e+00 0.000000000000e+00-1.210719347000e-08 9.300000000000e+01
    2.952000000000e+05 4.000000000000e+00
32 20  6 10 12  0  0.0 2.973787486553e-04 7.048583938740e-12 0.000000000000e+00
    2.100000000000e+01 1.071875000000e+01 4.726268296617e-09 8.433186889341e-01
    3.669410943985e-07 4.034432000481e-03 8.231028914452e-06 5.153719642639e+03
    3.024000000000e+05-1.098960638046e-07-1.379983058976e+00 5.215406417847e-08
    9.564166062249e-01 2.183437500000e+02-2.435435639407e+00-8.032834599804e-09
    4.107313943255e-10 1.000000000000e+00 2.109000000000e+03 0.000000000000e+00
    2.400000000000e+00 0.000000000000e+00 4.656612873077e-10 2.100000000000e+01
    2.952000000000e+05 4.000000000000e+00
